GLOBALSTAR M024         
1 25883U 99043A   25320.45911515 -.00000117  00000+0 -18432-2 0  9994
2 25883  52.0055  37.0402 0000980   0.4629  83.9924 11.10169744131777
GLOBALSTAR M027         
1 25884U 99043B   25320.19478235 -.00000086  00000+0 -84087-3 0  9998
2 25884  52.0176 119.9256 0020709 234.7002 125.1855 11.04373218158033
GLOBALSTAR M054         
1 25885U 99043C   25320.47350020 -.00000041  00000+0  77690-3 0  9993
2 25885  52.0125 221.0502 0005968  75.5492  95.3224 11.39223562136400
GLOBALSTAR M053         
1 25886U 99043D   25320.52287494 -.00000040  00000+0  84459-3 0  9994
2 25886  51.9943 176.4790 0003488   3.6236   3.5600 11.27668608136637
GLOBALSTAR M058         
1 25907U 99049A   25319.68184765 -.00000060  00000+0  33387-3 0  9992
2 25907  51.9952  64.6387 0002119 184.0159 176.0659 11.93204494559629
GLOBALSTAR M050         
1 25908U 99049B   25320.51998862 -.00000102  00000+0 -15059-3 0  9992
2 25908  52.0005  58.6962 0008471 338.1238  35.1312 12.07461241166592
GLOBALSTAR M033         
1 25909U 99049C   25320.20982741 -.00000056  00000+0  34053-3 0  9990
2 25909  51.9919 280.8813 0013491 217.4679 142.5229 12.20293168554301
GLOBALSTAR M055         
1 25910U 99049D   25319.63791595 -.00000061  00000+0  28772-3 0  9999
2 25910  52.0025 285.8642 0007369  83.5393 276.6297 12.29435853186910
